ATLAS CENTAUR R/B       
1 06155U 72065B   25360.10788293  .00001185  00000+0  16558-3 0  9993
2 06155  35.0025  16.8890 0033264 111.7451 248.6795 14.77442552830377
SL-8 R/B                
1 08459U 75112B   25360.46468856  .00000319  00000+0  11371-3 0  9993
2 08459  74.0595 153.6124 0016685 263.5688  96.3566 14.38154457621347
SL-3 R/B                
1 10114U 77057B   25360.82769490  .00013317  00000+0  30092-3 0  9995
2 10114  97.5693 164.7079 0007416 177.2105 182.9185 15.43287502657080
SEASAT 1                
1 10967U 78064A   25360.86348580  .00000423  00000+0  15701-3 0  9991
2 10967 108.0140 332.6667 0001304 256.8400 103.2600 14.46076402495986
SL-14 R/B               
1 11267U 79011B   25360.73978796  .00000721  00000+0  68905-4 0  9998
2 11267  82.5234 165.7659 0014826 304.4886  55.4933 14.91787002517906
SL-8 R/B                
1 11574U 79089B   25360.77812042  .00000240  00000+0  80656-4 0  9992
2 11574  74.0672 225.9971 0014763  54.5848 305.6685 14.42292170425596
SL-14 R/B               
1 11672U 80005B   25360.77208047  .00000653  00000+0  63697-4 0  9999
2 11672  82.5139  16.3897 0017009  50.6485 309.6238 14.90807817465625
SL-8 R/B                
1 12139U 81003B   25360.74574991  .00018838  00000+0  49822-3 0  9995
2 12139  82.9353 357.3151 0277455  72.1729 290.9557 15.07464937303673
SL-3 R/B                
1 12465U 81046B   25360.79643803  .00012296  00000+0  30667-3 0  9997
2 12465  81.2325  17.1176 0018070 272.7914  87.1259 15.39899248427207
SL-3 R/B                
1 12904U 81103B   25360.81058059  .00005998  00000+0  27360-3 0  9992
2 12904  81.1598 298.8736 0012900 163.7078 196.4571 15.20398665962158
SL-3 R/B                
1 13068U 82013B   25360.78620947  .00004497  00000+0  19890-3 0  9994
2 13068  81.1738 246.1676 0024086  66.0212 294.3537 15.21206753393265
SL-3 R/B                
1 13154U 82039B   25360.82424622  .00003212  00000+0  19651-3 0  9994
2 13154  81.1707 299.8929 0029436 204.3716 155.6120 15.09606041370647
