CCSDS_OMM_VERS = 2.0
CREATION_DATE  = 
ORIGINATOR     = 

OBJECT_NAME    = ATLAS CENTAUR R/B
OBJECT_ID      = 1972-065B
CENTER_NAME    = EARTH
REF_FRAME      = TEME
TIME_SYSTEM    = UTC
MEAN_ELEMENT_THEORY = SGP/SGP4

EPOCH          = 2025-12-26T02:35:21.085152
MEAN_MOTION    = 14.77442552
ECCENTRICITY   = .00332645
INCLINATION    = 35.0025
RA_OF_ASC_NODE = 16.8890
ARG_OF_PERICENTER = 111.7451
MEAN_ANOMALY   = 248.6795

EPHEMERIS_TYPE = 0
CLASSIFICATION_TYPE = U
NORAD_CAT_ID   = 6155
ELEMENT_SET_NO = 999
REV_AT_EPOCH   = 83037
BSTAR          = .1655795E-3
MEAN_MOTION_DOT = .1185E-4
MEAN_MOTION_DDOT = 0

CCSDS_OMM_VERS = 2.0
CREATION_DATE  = 
ORIGINATOR     = 

OBJECT_NAME    = SL-8 R/B
OBJECT_ID      = 1975-112B
CENTER_NAME    = EARTH
REF_FRAME      = TEME
TIME_SYSTEM    = UTC
MEAN_ELEMENT_THEORY = SGP/SGP4

EPOCH          = 2025-12-26T11:09:09.091584
MEAN_MOTION    = 14.38154457
ECCENTRICITY   = .0016685
INCLINATION    = 74.0595
RA_OF_ASC_NODE = 153.6124
ARG_OF_PERICENTER = 263.5688
MEAN_ANOMALY   = 96.3566

EPHEMERIS_TYPE = 0
CLASSIFICATION_TYPE = U
NORAD_CAT_ID   = 8459
ELEMENT_SET_NO = 999
REV_AT_EPOCH   = 62134
BSTAR          = .11371E-3
MEAN_MOTION_DOT = .319E-5
MEAN_MOTION_DDOT = 0

CCSDS_OMM_VERS = 2.0
CREATION_DATE  = 
ORIGINATOR     = 

OBJECT_NAME    = SL-3 R/B
OBJECT_ID      = 1977-057B
CENTER_NAME    = EARTH
REF_FRAME      = TEME
TIME_SYSTEM    = UTC
MEAN_ELEMENT_THEORY = SGP/SGP4

EPOCH          = 2025-12-26T19:51:52.839360
MEAN_MOTION    = 15.43287502
ECCENTRICITY   = .0007416
INCLINATION    = 97.5693
RA_OF_ASC_NODE = 164.7079
ARG_OF_PERICENTER = 177.2105
MEAN_ANOMALY   = 182.9185

EPHEMERIS_TYPE = 0
CLASSIFICATION_TYPE = U
NORAD_CAT_ID   = 10114
ELEMENT_SET_NO = 999
REV_AT_EPOCH   = 65708
BSTAR          = .30092E-3
MEAN_MOTION_DOT = .13317E-3
MEAN_MOTION_DDOT = 0

CCSDS_OMM_VERS = 2.0
CREATION_DATE  = 
ORIGINATOR     = 

OBJECT_NAME    = SEASAT 1
OBJECT_ID      = 1978-064A
CENTER_NAME    = EARTH
REF_FRAME      = TEME
TIME_SYSTEM    = UTC
MEAN_ELEMENT_THEORY = SGP/SGP4

EPOCH          = 2025-12-26T20:43:25.173120
MEAN_MOTION    = 14.46076402
ECCENTRICITY   = .0001304
INCLINATION    = 108.0140
RA_OF_ASC_NODE = 332.6667
ARG_OF_PERICENTER = 256.8400
MEAN_ANOMALY   = 103.2600

EPHEMERIS_TYPE = 0
CLASSIFICATION_TYPE = U
NORAD_CAT_ID   = 10967
ELEMENT_SET_NO = 999
REV_AT_EPOCH   = 49598
BSTAR          = .15701E-3
MEAN_MOTION_DOT = .423E-5
MEAN_MOTION_DDOT = 0

CCSDS_OMM_VERS = 2.0
CREATION_DATE  = 
ORIGINATOR     = 

OBJECT_NAME    = SL-14 R/B
OBJECT_ID      = 1979-011B
CENTER_NAME    = EARTH
REF_FRAME      = TEME
TIME_SYSTEM    = UTC
MEAN_ELEMENT_THEORY = SGP/SGP4

EPOCH          = 2025-12-26T17:45:17.679744
MEAN_MOTION    = 14.91787002
ECCENTRICITY   = .0014826
INCLINATION    = 82.5234
RA_OF_ASC_NODE = 165.7659
ARG_OF_PERICENTER = 304.4886
MEAN_ANOMALY   = 55.4933

EPHEMERIS_TYPE = 0
CLASSIFICATION_TYPE = U
NORAD_CAT_ID   = 11267
ELEMENT_SET_NO = 999
REV_AT_EPOCH   = 51790
BSTAR          = .68905E-4
MEAN_MOTION_DOT = .721E-5
MEAN_MOTION_DDOT = 0

CCSDS_OMM_VERS = 2.0
CREATION_DATE  = 
ORIGINATOR     = 

OBJECT_NAME    = SL-8 R/B
OBJECT_ID      = 1979-089B
CENTER_NAME    = EARTH
REF_FRAME      = TEME
TIME_SYSTEM    = UTC
MEAN_ELEMENT_THEORY = SGP/SGP4

EPOCH          = 2025-12-26T18:40:29.604288
MEAN_MOTION    = 14.42292170
ECCENTRICITY   = .0014763
INCLINATION    = 74.0672
RA_OF_ASC_NODE = 225.9971
ARG_OF_PERICENTER = 54.5848
MEAN_ANOMALY   = 305.6685

EPHEMERIS_TYPE = 0
CLASSIFICATION_TYPE = U
NORAD_CAT_ID   = 11574
ELEMENT_SET_NO = 999
REV_AT_EPOCH   = 42559
BSTAR          = .80656E-4
MEAN_MOTION_DOT = .24E-5
MEAN_MOTION_DDOT = 0

CCSDS_OMM_VERS = 2.0
CREATION_DATE  = 
ORIGINATOR     = 

OBJECT_NAME    = SL-14 R/B
OBJECT_ID      = 1980-005B
CENTER_NAME    = EARTH
REF_FRAME      = TEME
TIME_SYSTEM    = UTC
MEAN_ELEMENT_THEORY = SGP/SGP4

EPOCH          = 2025-12-26T18:31:47.752608
MEAN_MOTION    = 14.90807817
ECCENTRICITY   = .0017009
INCLINATION    = 82.5139
RA_OF_ASC_NODE = 16.3897
ARG_OF_PERICENTER = 50.6485
MEAN_ANOMALY   = 309.6238

EPHEMERIS_TYPE = 0
CLASSIFICATION_TYPE = U
NORAD_CAT_ID   = 11672
ELEMENT_SET_NO = 999
REV_AT_EPOCH   = 46562
BSTAR          = .63697E-4
MEAN_MOTION_DOT = .653E-5
MEAN_MOTION_DDOT = 0

CCSDS_OMM_VERS = 2.0
CREATION_DATE  = 
ORIGINATOR     = 

OBJECT_NAME    = SL-8 R/B
OBJECT_ID      = 1981-003B
CENTER_NAME    = EARTH
REF_FRAME      = TEME
TIME_SYSTEM    = UTC
MEAN_ELEMENT_THEORY = SGP/SGP4

EPOCH          = 2025-12-26T17:53:52.792224
MEAN_MOTION    = 15.07464937
ECCENTRICITY   = .0277455
INCLINATION    = 82.9353
RA_OF_ASC_NODE = 357.3151
ARG_OF_PERICENTER = 72.1729
MEAN_ANOMALY   = 290.9557

EPHEMERIS_TYPE = 0
CLASSIFICATION_TYPE = U
NORAD_CAT_ID   = 12139
ELEMENT_SET_NO = 999
REV_AT_EPOCH   = 30367
BSTAR          = .49822E-3
MEAN_MOTION_DOT = .18838E-3
MEAN_MOTION_DDOT = 0

CCSDS_OMM_VERS = 2.0
CREATION_DATE  = 
ORIGINATOR     = 

OBJECT_NAME    = SL-3 R/B
OBJECT_ID      = 1981-046B
CENTER_NAME    = EARTH
REF_FRAME      = TEME
TIME_SYSTEM    = UTC
MEAN_ELEMENT_THEORY = SGP/SGP4

EPOCH          = 2025-12-26T19:06:52.245792
MEAN_MOTION    = 15.39899248
ECCENTRICITY   = .001807
INCLINATION    = 81.2325
RA_OF_ASC_NODE = 17.1176
ARG_OF_PERICENTER = 272.7914
MEAN_ANOMALY   = 87.1259

EPHEMERIS_TYPE = 0
CLASSIFICATION_TYPE = U
NORAD_CAT_ID   = 12465
ELEMENT_SET_NO = 999
REV_AT_EPOCH   = 42720
BSTAR          = .30667E-3
MEAN_MOTION_DOT = .12296E-3
MEAN_MOTION_DDOT = 0

CCSDS_OMM_VERS = 2.0
CREATION_DATE  = 
ORIGINATOR     = 

OBJECT_NAME    = SL-3 R/B
OBJECT_ID      = 1981-103B
CENTER_NAME    = EARTH
REF_FRAME      = TEME
TIME_SYSTEM    = UTC
MEAN_ELEMENT_THEORY = SGP/SGP4

EPOCH          = 2025-12-26T19:27:14.162976
MEAN_MOTION    = 15.20398665
ECCENTRICITY   = .00129
INCLINATION    = 81.1598
RA_OF_ASC_NODE = 298.8736
ARG_OF_PERICENTER = 163.7078
MEAN_ANOMALY   = 196.4571

EPHEMERIS_TYPE = 0
CLASSIFICATION_TYPE = U
NORAD_CAT_ID   = 12904
ELEMENT_SET_NO = 999
REV_AT_EPOCH   = 96215
BSTAR          = .2736E-3
MEAN_MOTION_DOT = .5998E-4
MEAN_MOTION_DDOT = 0

CCSDS_OMM_VERS = 2.0
CREATION_DATE  = 
ORIGINATOR     = 

OBJECT_NAME    = SL-3 R/B
OBJECT_ID      = 1982-013B
CENTER_NAME    = EARTH
REF_FRAME      = TEME
TIME_SYSTEM    = UTC
MEAN_ELEMENT_THEORY = SGP/SGP4

EPOCH          = 2025-12-26T18:52:08.498208
MEAN_MOTION    = 15.21206753
ECCENTRICITY   = .0024086
INCLINATION    = 81.1738
RA_OF_ASC_NODE = 246.1676
ARG_OF_PERICENTER = 66.0212
MEAN_ANOMALY   = 294.3537

EPHEMERIS_TYPE = 0
CLASSIFICATION_TYPE = U
NORAD_CAT_ID   = 13068
ELEMENT_SET_NO = 999
REV_AT_EPOCH   = 39326
BSTAR          = .1989E-3
MEAN_MOTION_DOT = .4497E-4
MEAN_MOTION_DDOT = 0

CCSDS_OMM_VERS = 2.0
CREATION_DATE  = 
ORIGINATOR     = 

OBJECT_NAME    = SL-3 R/B
OBJECT_ID      = 1982-039B
CENTER_NAME    = EARTH
REF_FRAME      = TEME
TIME_SYSTEM    = UTC
MEAN_ELEMENT_THEORY = SGP/SGP4

EPOCH          = 2025-12-26T19:46:54.873408
MEAN_MOTION    = 15.09606041
ECCENTRICITY   = .0029436
INCLINATION    = 81.1707
RA_OF_ASC_NODE = 299.8929
ARG_OF_PERICENTER = 204.3716
MEAN_ANOMALY   = 155.6120

EPHEMERIS_TYPE = 0
CLASSIFICATION_TYPE = U
NORAD_CAT_ID   = 13154
ELEMENT_SET_NO = 999
REV_AT_EPOCH   = 37064
BSTAR          = .19651E-3
MEAN_MOTION_DOT = .3212E-4
MEAN_MOTION_DDOT = 0

